start=new Date('2021-08-23T00:00:00.000Z').valueOf();
sats=[{"REF_FRAME":"TEME","MEAN_MOTION_DDOT":"0.0000000000000","EPOCH":"2021-08-22T15:41:12.378336","SITE":"AFETR","FILE":"3101563","LAUNCH_DATE":"2020-08-18","ECCENTRICITY":"0.00010580","CLASSIFICATION_TYPE":"U","NORAD_CAT_ID":"46169","OBJECT_NAME":"STARLINK-1628","ARG_OF_PERICENTER":"58.8389","APOAPSIS":"550.430","OBJECT_TYPE":"PAYLOAD","TIME_SYSTEM":"UTC","MEAN_ELEMENT_THEORY":"SGP4","PERIOD":"95.644","RA_OF_ASC_NODE":"208.8095","SEMIMAJOR_AXIS":"6927.833","MEAN_MOTION":"15.05589894","TLE_LINE1":"1 46169U 20057BE  21234.65361549  .00000990  00000-0  87104-4 0  9993","CENTER_NAME":"EARTH","INCLINATION":"52.9991","PERIAPSIS":"548.965","BSTAR":"0.00008710400000","RCS_SIZE":"LARGE","ELEMENT_SET_NO":"999","TLE_LINE2":"2 46169  52.9991 208.8095 0001058  58.8389 301.2703 15.05589894 55842","MEAN_MOTION_DOT":"0.00000990","GP_ID":"183271099","OBJECT_ID":"2020-057BE","DECAY_DATE":null,"COUNTRY_CODE":"US","EPHEMERIS_TYPE":"0","REV_AT_EPOCH":"5584","MEAN_ANOMALY":"301.2703"},{"NORAD_CAT_ID":"46170","OBJECT_NAME":"STARLINK-1632","ARG_OF_PERICENTER":"273.5171","APOAPSIS":"321.124","TIME_SYSTEM":"UTC","OBJECT_TYPE":"PAYLOAD","MEAN_ELEMENT_THEORY":"SGP4","PERIOD":"90.832","RA_OF_ASC_NODE":"129.7456","MEAN_MOTION_DDOT":"0.0000000000000","REF_FRAME":"TEME","EPOCH":"2021-08-22T20:57:44.599104","SITE":"AFETR","FILE":"3101563","LAUNCH_DATE":"2020-08-18","ECCENTRICITY":"0.00086310","CLASSIFICATION_TYPE":"U","ELEMENT_SET_NO":"999","RCS_SIZE":"LARGE","MEAN_MOTION_DOT":"0.00332820","TLE_LINE2":"2 46170  53.0546 129.7456 0008631 273.5171  86.4865 15.85348063 56990","GP_ID":"183271349","OBJECT_ID":"2020-057BF","DECAY_DATE":null,"COUNTRY_CODE":"US","EPHEMERIS_TYPE":"0","REV_AT_EPOCH":"5699","MEAN_ANOMALY":"86.4865","SEMIMAJOR_AXIS":"6693.482","MEAN_MOTION":"15.85348063","TLE_LINE1":"1 46170U 20057BF  21234.87343286  .00332820  00000-0  13145-2 0  9999","CENTER_NAME":"EARTH","PERIAPSIS":"309.570","BSTAR":"0.00131450000000","INCLINATION":"53.0546"},{"DECAY_DATE":null,"COUNTRY_CODE":"US","EPHEMERIS_TYPE":"0","MEAN_ANOMALY":"297.0882","REV_AT_EPOCH":"5743","ELEMENT_SET_NO":"999","RCS_SIZE":"LARGE","TLE_LINE2":"2 46171  53.0537 187.6860 0001471  63.0257 297.0882 15.06405775 57431","MEAN_MOTION_DOT":"0.00000296","OBJECT_ID":"2020-057BG","GP_ID":"183272601","CENTER_NAME":"EARTH","INCLINATION":"53.0537","PERIAPSIS":"546.177","BSTAR":"0.00003879500000","SEMIMAJOR_AXIS":"6925.331","MEAN_MOTION":"15.06405775","TLE_LINE1":"1 46171U 20057BG  21234.90529793  .00000296  00000-0  38795-4 0  9992","PERIOD":"95.592","MEAN_ELEMENT_THEORY":"SGP4","RA_OF_ASC_NODE":"187.6860","OBJECT_NAME":"STARLINK-1633","NORAD_CAT_ID":"46171","ARG_OF_PERICENTER":"63.0257","APOAPSIS":"548.215","TIME_SYSTEM":"UTC","OBJECT_TYPE":"PAYLOAD","ECCENTRICITY":"0.00014710","LAUNCH_DATE":"2020-08-18","CLASSIFICATION_TYPE":"U","REF_FRAME":"TEME","MEAN_MOTION_DDOT":"0.0000000000000","SITE":"AFETR","EPOCH":"2021-08-22T21:43:37.741152","FILE":"3101563"},{"FILE":"3101563","REF_FRAME":"TEME","MEAN_MOTION_DDOT":"0.0000000000000","EPOCH":"2021-08-22T14:07:09.994368","SITE":"AFETR","LAUNCH_DATE":"2020-08-18","ECCENTRICITY":"0.00016580","CLASSIFICATION_TYPE":"U","APOAPSIS":"548.363","OBJECT_TYPE":"PAYLOAD","TIME_SYSTEM":"UTC","NORAD_CAT_ID":"46172","OBJECT_NAME":"STARLINK-1635","ARG_OF_PERICENTER":"65.4416","MEAN_ELEMENT_THEORY":"SGP4","PERIOD":"95.592","RA_OF_ASC_NODE":"189.1040","TLE_LINE1":"1 46172U 20057BH  21234.58831012  .00001408  00000-0  11344-3 0  9993","SEMIMAJOR_AXIS":"6925.350","MEAN_MOTION":"15.06399587","PERIAPSIS":"546.067","BSTAR":"0.00011344000000","INCLINATION":"53.0565","CENTER_NAME":"EARTH","GP_ID":"183272852","OBJECT_ID":"2020-057BH","RCS_SIZE":"LARGE","ELEMENT_SET_NO":"999","MEAN_MOTION_DOT":"0.00001408","TLE_LINE2":"2 46172  53.0565 189.1040 0001658  65.4416 294.6746 15.06399587 57389","EPHEMERIS_TYPE":"0","COUNTRY_CODE":"US","REV_AT_EPOCH":"5738","MEAN_ANOMALY":"294.6746","DECAY_DATE":null},{"PERIOD":"95.592","MEAN_ELEMENT_THEORY":"SGP4","RA_OF_ASC_NODE":"208.9011","APOAPSIS":"548.059","OBJECT_TYPE":"PAYLOAD","TIME_SYSTEM":"UTC","OBJECT_NAME":"STARLINK-1640","NORAD_CAT_ID":"46173","ARG_OF_PERICENTER":"53.1667","ECCENTRICITY":"0.00012520","LAUNCH_DATE":"2020-08-18","CLASSIFICATION_TYPE":"U","FILE":"3101563","REF_FRAME":"TEME","MEAN_MOTION_DDOT":"0.0000000000000","SITE":"AFETR","EPOCH":"2021-08-22T15:13:30.406080","COUNTRY_CODE":"US","EPHEMERIS_TYPE":"0","MEAN_ANOMALY":"306.9437","REV_AT_EPOCH":"5585","DECAY_DATE":null,"OBJECT_ID":"2020-057BJ","GP_ID":"183271600","RCS_SIZE":"LARGE","ELEMENT_SET_NO":"999","TLE_LINE2":"2 46173  53.0540 208.9011 0001252  53.1667 306.9437 15.06406969 55850","MEAN_MOTION_DOT":"0.00000714","PERIAPSIS":"546.325","BSTAR":"0.00006682500000","INCLINATION":"53.0540","CENTER_NAME":"EARTH","TLE_LINE1":"1 46173U 20057BJ  21234.63437970  .00000714  00000-0  66825-4 0  9999","SEMIMAJOR_AXIS":"6925.327","MEAN_MOTION":"15.06406969"},{"REV_AT_EPOCH":"5589","MEAN_ANOMALY":"299.4609","EPHEMERIS_TYPE":"0","COUNTRY_CODE":"US","DECAY_DATE":null,"GP_ID":"183271850","OBJECT_ID":"2020-057BK","TLE_LINE2":"2 46174  53.0543 207.6668 0001114  60.6491 299.4609 15.06405978 55893","MEAN_MOTION_DOT":"0.00000697","RCS_SIZE":"LARGE","ELEMENT_SET_NO":"999","BSTAR":"0.00006569700000","PERIAPSIS":"546.424","INCLINATION":"53.0543","CENTER_NAME":"EARTH","TLE_LINE1":"1 46174U 20057BK  21234.90713056  .00000697  00000-0  65697-4 0  9998","MEAN_MOTION":"15.06405978","SEMIMAJOR_AXIS":"6925.330","RA_OF_ASC_NODE":"207.6668","MEAN_ELEMENT_THEORY":"SGP4","PERIOD":"95.592","TIME_SYSTEM":"UTC","OBJECT_TYPE":"PAYLOAD","APOAPSIS":"547.967","ARG_OF_PERICENTER":"60.6491","OBJECT_NAME":"STARLINK-1641","NORAD_CAT_ID":"46174","CLASSIFICATION_TYPE":"U","LAUNCH_DATE":"2020-08-18","ECCENTRICITY":"0.00011140","FILE":"3101563","EPOCH":"2021-08-22T21:46:16.080384","SITE":"AFETR","REF_FRAME":"TEME","MEAN_MOTION_DDOT":"0.0000000000000"},{"INCLINATION":"53.0537","PERIAPSIS":"546.695","BSTAR":"0.00006960900000","CENTER_NAME":"EARTH","TLE_LINE1":"1 46325U 20062A   21234.45424376  .00000756  00000-0  69609-4 0  9999","MEAN_MOTION":"15.06399234","SEMIMAJOR_AXIS":"6925.351","MEAN_ANOMALY":"325.2677","REV_AT_EPOCH":"5529","EPHEMERIS_TYPE":"0","COUNTRY_CODE":"US","DECAY_DATE":null,"OBJECT_ID":"2020-062A","GP_ID":"183249310","TLE_LINE2":"2 46325  53.0537 224.7118 0000752  34.8361 325.2677 15.06399234 55294","MEAN_MOTION_DOT":"0.00000756","ELEMENT_SET_NO":"999","RCS_SIZE":"LARGE","CLASSIFICATION_TYPE":"U","ECCENTRICITY":"0.00007520","LAUNCH_DATE":"2020-09-03","FILE":"3101484","SITE":"AFETR","EPOCH":"2021-08-22T10:54:06.660864","REF_FRAME":"TEME","MEAN_MOTION_DDOT":"0.0000000000000","RA_OF_ASC_NODE":"224.7118","PERIOD":"95.592","MEAN_ELEMENT_THEORY":"SGP4","OBJECT_TYPE":"PAYLOAD","TIME_SYSTEM":"UTC","APOAPSIS":"547.737","ARG_OF_PERICENTER":"34.8361","OBJECT_NAME":"STARLINK-1734","NORAD_CAT_ID":"46325"},{"APOAPSIS":"547.639","OBJECT_TYPE":"PAYLOAD","TIME_SYSTEM":"UTC","OBJECT_NAME":"STARLINK-1654","NORAD_CAT_ID":"46326","ARG_OF_PERICENTER":"77.3519","PERIOD":"95.592","MEAN_ELEMENT_THEORY":"SGP4","RA_OF_ASC_NODE":"269.5305","FILE":"3101345","REF_FRAME":"TEME","MEAN_MOTION_DDOT":"0.0000000000000","SITE":"AFETR","EPOCH":"2021-08-22T11:53:06.140544","ECCENTRICITY":"0.00005970","LAUNCH_DATE":"2020-09-03","CLASSIFICATION_TYPE":"U","OBJECT_ID":"2020-062B","GP_ID":"183244483","ELEMENT_SET_NO":"999","RCS_SIZE":"LARGE","MEAN_MOTION_DOT":"-0.00000711","TLE_LINE2":"2 46326  53.0530 269.5305 0000597  77.3519 282.7536 15.06396046 54082","COUNTRY_CODE":"US","EPHEMERIS_TYPE":"0","MEAN_ANOMALY":"282.7536","REV_AT_EPOCH":"5408","DECAY_DATE":null,"TLE_LINE1":"1 46326U 20062B   21234.49520996 -.00000711  00000-0 -28843-4 0  9997","SEMIMAJOR_AXIS":"6925.361","MEAN_MOTION":"15.06396046","BSTAR":"-0.00002884300000","PERIAPSIS":"546.812","INCLINATION":"53.0530","CENTER_NAME":"EARTH"},{"GP_ID":"183272364","OBJECT_ID":"2020-062C","MEAN_MOTION_DOT":"0.00000692","TLE_LINE2":"2 46327  53.0541 268.1347 0000154  88.0651 272.0356 15.06402639 54124","ELEMENT_SET_NO":"999","RCS_SIZE":"LARGE","REV_AT_EPOCH":"5412","MEAN_ANOMALY":"272.0356","COUNTRY_CODE":"US","EPHEMERIS_TYPE":"0","DECAY_DATE":null,"TLE_LINE1":"1 46327U 20062C   21234.80576078  .00000692  00000-0  65323-4 0  9995","MEAN_MOTION":"15.06402639","SEMIMAJOR_AXIS":"6925.340","PERIAPSIS":"547.099","BSTAR":"0.00006532300000","INCLINATION":"53.0541","CENTER_NAME":"EARTH","OBJECT_TYPE":"PAYLOAD","TIME_SYSTEM":"UTC","APOAPSIS":"547.312","ARG_OF_PERICENTER":"88.0651","OBJECT_NAME":"STARLINK-1673","NORAD_CAT_ID":"46327","RA_OF_ASC_NODE":"268.1347","MEAN_ELEMENT_THEORY":"SGP4","PERIOD":"95.592","FILE":"3101563","EPOCH":"2021-08-22T19:20:17.731392","SITE":"AFETR","MEAN_MOTION_DDOT":"0.0000000000000","REF_FRAME":"TEME","CLASSIFICATION_TYPE":"U","LAUNCH_DATE":"2020-09-03","ECCENTRICITY":"0.00001540"},{"LAUNCH_DATE":"2020-09-03","ECCENTRICITY":"0.00008130","CLASSIFICATION_TYPE":"U","REF_FRAME":"TEME","MEAN_MOTION_DDOT":"0.0000000000000","EPOCH":"2021-08-22T20:26:40.848288","SITE":"AFETR","FILE":"3101563","MEAN_ELEMENT_THEORY":"SGP4","PERIOD":"95.592","RA_OF_ASC_NODE":"247.9234","OBJECT_NAME":"STARLINK-1686","NORAD_CAT_ID":"46328","ARG_OF_PERICENTER":"54.5615","APOAPSIS":"547.779","OBJECT_TYPE":"PAYLOAD","TIME_SYSTEM":"UTC","CENTER_NAME":"EARTH","BSTAR":"0.00007170300000","PERIAPSIS":"546.653","INCLINATION":"53.0538","SEMIMAJOR_AXIS":"6925.351","MEAN_MOTION":"15.06399312","TLE_LINE1":"1 46328U 20062D   21234.85186167  .00000787  00000-0  71703-4 0  9991","DECAY_DATE":null,"EPHEMERIS_TYPE":"0","COUNTRY_CODE":"US","REV_AT_EPOCH":"5441","MEAN_ANOMALY":"305.5449","RCS_SIZE":"LARGE","ELEMENT_SET_NO":"999","TLE_LINE2":"2 46328  53.0538 247.9234 0000813  54.5615 305.5449 15.06399312 54411","MEAN_MOTION_DOT":"0.00000787","GP_ID":"183271112","OBJECT_ID":"2020-062D"}];
